STARLINK-37575          
1 69454U 26127M   26170.69923002  .00141812  00000+0  70824-3 0  9993
2 69454  53.1589 249.7191 0001747  46.3894 313.7273 15.80935190  1803
STARLINK-37642          
1 69455U 26127N   26170.69548431 -.00827478  00000+0 -50909-2 0  9995
2 69455  53.1592 249.6935 0001319  78.0915 282.0255 15.78698980  1802
STARLINK-37513          
1 69456U 26127P   26170.69123508  .00189678  00000+0  93972-3 0  9999
2 69456  53.1584 249.6647 0001144  61.6985 298.4153 15.80961916  1808
STARLINK-37563          
1 69457U 26127Q   26170.68863920  .00244108  00000+0  11996-2 0  9993
2 69457  53.1584 249.6466 0001486  63.1013 297.0161 15.80981935  1803
STARLINK-37565          
1 69458U 26127R   26170.68936545  .00175936  00000+0  87345-3 0  9992
2 69458  53.1585 249.6514 0000665  60.8515 299.2574 15.80957712  1806
STARLINK-37498          
1 69459U 26127S   26170.31001668  .02609721  00000+0  11256-1 0  9994
2 69459  53.1581 251.5531 0003664 350.3814   9.7138 15.80924662  1746
STARLINK-37384          
1 69460U 26127T   26170.68712399  .00059307  00000+0  30067-3 0  9996
2 69460  53.1580 249.6362 0001083  79.3582 280.7563 15.80966013  1806
STARLINK-37707          
1 69461U 26127U   26170.68159851  .00209743  00000+0  10374-2 0  9994
2 69461  53.1590 249.5978 0000748 121.2489 238.8607 15.80940213  1807
STARLINK-37525          
1 69462U 26127V   26170.68145675  .00154846  00000+0  77175-3 0  9990
2 69462  53.1585 249.5970 0001592  71.4185 288.7011 15.80937997  1809
STARLINK-37526          
1 69463U 26127W   26170.68082601  .00176881  00000+0  87788-3 0  9994
2 69463  53.1586 249.5930 0001042  49.0857 311.0256 15.80961473  1801
STARLINK-37574          
1 69464U 26127X   26170.67396141  .00120920  00000+0  60664-3 0  9998
2 69464  53.1590 249.5466 0000924  33.0559 327.0522 15.80908535  1804
STARLINK-37535          
1 69465U 26127Y   26170.67583763  .00128129  00000+0  64160-3 0  9991
2 69465  53.1592 249.5594 0001067  52.5414 307.5706 15.80924107  1804
STARLINK-37583          
1 69466U 26127Z   26170.72835939 -.00159162  00000+0 -81280-3 0  9998
2 69466  53.1586 249.1703 0001412  40.9913 319.1216 15.81003251  1810
STARLINK-37546          
1 69467U 26127AA  26170.72611299 -.00546436  00000+0 -29063-2 0  9994
2 69467  53.1588 249.1549 0000948  57.8055 302.3060 15.81149527  1816
STARLINK-37532          
1 69468U 26127AB  26170.66399604 -.00054681  00000+0 -27442-3 0  9997
2 69468  53.1587 249.4772 0000939  21.7267 338.3795 15.80938479  1806
STARLINK-37708          
1 69469U 26127AC  26170.34660530 -.00763220  00000+0 -40309-2 0  9994
2 69469  53.1584 251.0527 0001807  17.5853 342.5232 15.81832705  1753
STARLINK-37686          
1 69470U 26127AD  26170.72382002 -.00285721  00000+0 -14816-2 0  9992
2 69470  53.1582 249.1389 0000980  28.9815 331.1262 15.81030158  1818
STARLINK-37451          
1 69471U 26127AE  26170.72181884 -.00802721  00000+0 -43812-2 0  9991
2 69471  53.1586 249.1259 0001203  47.9371 312.1754 15.81234858  1814
DTC TEST OBJECT A       
1 69472U 26128A   26170.73784323  .00023275  00000+0  33526-3 0  9990
2 69472  54.9939 293.2455 0008712 298.9246  61.0916 15.55945230  1628
DTC TEST OBJECT B       
1 69473U 26128B   26170.67120677  .00028464  00000+0  40110-3 0  9992
2 69473  55.0030 293.5365 0008724 299.6071  60.4095 15.56421491  1601
TJS-25                  
1 69474U 26129A   26162.48255804  .00007407  00000+0  19774-2 0  9990
2 69474  16.5302  30.5351 7751889 199.9639  91.9387  1.72502163    78
STARLINK-37816          
1 69478U 26131A   26170.91668981 -.01067544  33872-3 -33069-2 0  9999
2 69478  97.2833 191.3134 0001182  78.3776 222.9283 15.91682236  2452
STARLINK-37878          
1 69479U 26131B   26170.91668981 -.01007966  30472-3 -31075-2 0  9990
2 69479  97.2833 191.3144 0001124  82.1265 221.4600 15.91767168  1337
STARLINK-37817          
1 69480U 26131C   26170.91668981 -.01072531  34238-3 -32872-2 0  9992
2 69480  97.2834 191.3155 0001141  79.3288 227.5492 15.91890758  2456
STARLINK-37727          
1 69481U 26131D   26170.91668981 -.01073591  34336-3 -32733-2 0  9995
2 69481  97.2832 191.3167 0001083  74.5545 235.2954 15.91992817  2454
STARLINK-37814          
1 69482U 26131E   26170.91668981 -.01076488  34544-3 -32646-2 0  9998
2 69482  97.2834 191.3179 0001086  76.7754 235.6935 15.92097107  2451
STARLINK-37869          
1 69483U 26131F   26170.91668981 -.01082714  34953-3 -32661-2 0  9999
2 69483  97.2835 191.3189 0001060  79.1192 236.4939 15.92201008  2459
STARLINK-37873          
1 69484U 26131G   26170.91668981 -.01084670  35107-3 -32547-2 0  9998
2 69484  97.2836 191.3200 0001059  79.1332 239.2113 15.92304729  2458
STARLINK-37892          
1 69485U 26131H   26170.91668981 -.01083730  35088-3 -32341-2 0  9995
2 69485  97.2835 191.3210 0001104  76.2533 244.1559 15.92410340  2457
