OBJECT_NAME,OBJECT_ID,EPOCH,MEAN_MOTION,ECCENTRICITY,INCLINATION,RA_OF_ASC_NODE,ARG_OF_PERICENTER,MEAN_ANOMALY,EPHEMERIS_TYPE,CLASSIFICATION_TYPE,NORAD_CAT_ID,ELEMENT_SET_NO,REV_AT_EPOCH,BSTAR,MEAN_MOTION_DOT,MEAN_MOTION_DDOT
STARLINK-37575,2026-127M,2026-06-19T16:46:53.473728,15.80935190,.00017478,53.1589,249.7191,46.3894,313.7273,0,U,69454,999,180,.70823986E-3,.141812E-2,0
STARLINK-37642,2026-127N,2026-06-19T16:41:29.844384,15.78698980,.00013199,53.1592,249.6935,78.0915,282.0255,0,U,69455,999,180,-.50909004E-2,-.827478E-2,0
STARLINK-37513,2026-127P,2026-06-19T16:35:22.710912,15.80961916,.00011444,53.1584,249.6647,61.6985,298.4153,0,U,69456,999,180,.93972448E-3,.189678E-2,0
STARLINK-37563,2026-127Q,2026-06-19T16:31:38.426880,15.80981935,.00014865,53.1584,249.6466,63.1013,297.0161,0,U,69457,999,180,.1199642E-2,.244108E-2,0
STARLINK-37565,2026-127R,2026-06-19T16:32:41.174880,15.80957712,.00006653,53.1585,249.6514,60.8515,299.2574,0,U,69458,999,180,.87345479E-3,.175936E-2,0
STARLINK-37498,2026-127S,2026-06-19T07:26:25.441152,15.80924662,.00036646,53.1581,251.5531,350.3814,9.7138,0,U,69459,999,174,.11255549E-1,.2609721E-1,0
STARLINK-37384,2026-127T,2026-06-19T16:29:27.512736,15.80966013,.00010834,53.1580,249.6362,79.3582,280.7563,0,U,69460,999,180,.30066779E-3,.59307E-3,0
STARLINK-37707,2026-127U,2026-06-19T16:21:30.111264,15.80940213,.00007486,53.1590,249.5978,121.2489,238.8607,0,U,69461,999,180,.10373696E-2,.209743E-2,0
STARLINK-37525,2026-127V,2026-06-19T16:21:17.863200,15.80937997,.00015924,53.1585,249.5970,71.4185,288.7011,0,U,69462,999,180,.77175366E-3,.154846E-2,0
STARLINK-37526,2026-127W,2026-06-19T16:20:23.367264,15.80961473,.00010425,53.1586,249.5930,49.0857,311.0256,0,U,69463,999,180,.87788403E-3,.176881E-2,0
STARLINK-37574,2026-127X,2026-06-19T16:10:30.265824,15.80908535,.0000924,53.1590,249.5466,33.0559,327.0522,0,U,69464,999,180,.60664346E-3,.12092E-2,0
STARLINK-37535,2026-127Y,2026-06-19T16:13:12.371232,15.80924107,.00010671,53.1592,249.5594,52.5414,307.5706,0,U,69465,999,180,.64160125E-3,.128129E-2,0
STARLINK-37583,2026-127Z,2026-06-19T17:28:50.251296,15.81003251,.00014125,53.1586,249.1703,40.9913,319.1216,0,U,69466,999,181,-.8127973E-3,-.159162E-2,0
STARLINK-37546,2026-127AA,2026-06-19T17:25:36.162336,15.81149527,.00009483,53.1588,249.1549,57.8055,302.3060,0,U,69467,999,181,-.29063325E-2,-.546436E-2,0
STARLINK-37532,2026-127AB,2026-06-19T15:56:09.257856,15.80938479,.00009396,53.1587,249.4772,21.7267,338.3795,0,U,69468,999,180,-.27441998E-3,-.54681E-3,0
STARLINK-37708,2026-127AC,2026-06-19T08:19:06.697920,15.81832705,.00018073,53.1584,251.0527,17.5853,342.5232,0,U,69469,999,175,-.40309473E-2,-.76322E-2,0
STARLINK-37686,2026-127AD,2026-06-19T17:22:18.049728,15.81030158,.00009804,53.1582,249.1389,28.9815,331.1262,0,U,69470,999,181,-.14815645E-2,-.285721E-2,0
STARLINK-37451,2026-127AE,2026-06-19T17:19:25.147776,15.81234858,.00012034,53.1586,249.1259,47.9371,312.1754,0,U,69471,999,181,-.43811685E-2,-.802721E-2,0
DTC TEST OBJECT A,2026-128A,2026-06-19T17:42:29.655072,15.55945230,.00087129,54.9939,293.2455,298.9246,61.0916,0,U,69472,999,162,.3352606E-3,.23275E-3,0
DTC TEST OBJECT B,2026-128B,2026-06-19T16:06:32.264928,15.56421491,.00087249,55.0030,293.5365,299.6071,60.4095,0,U,69473,999,160,.40110223E-3,.28464E-3,0
TJS-25,2026-129A,2026-06-11T11:34:53.014656,1.72502163,.7751889,16.5302,30.5351,199.9639,91.9387,0,U,69474,999,7,.19774E-2,.7407E-4,0
STARLINK-37816,2026-131A,2026-06-19T22:00:01.999584,15.91682236,.00011823,97.2833,191.3134,78.3776,222.9283,0,U,69478,999,245,-.33068973E-2,-.1067544E-1,.33871844E-3
STARLINK-37878,2026-131B,2026-06-19T22:00:01.999584,15.91767168,.00011244,97.2833,191.3144,82.1265,221.4600,0,U,69479,999,133,-.31074922E-2,-.1007966E-1,.30471676E-3
STARLINK-37817,2026-131C,2026-06-19T22:00:01.999584,15.91890758,.0001141,97.2834,191.3155,79.3288,227.5492,0,U,69480,999,245,-.32871636E-2,-.1072531E-1,.34237778E-3
STARLINK-37727,2026-131D,2026-06-19T22:00:01.999584,15.91992817,.00010839,97.2832,191.3167,74.5545,235.2954,0,U,69481,999,245,-.32732629E-2,-.1073591E-1,.34335987E-3
STARLINK-37814,2026-131E,2026-06-19T22:00:01.999584,15.92097107,.00010869,97.2834,191.3179,76.7754,235.6935,0,U,69482,999,245,-.32646165E-2,-.1076488E-1,.3454437E-3
STARLINK-37869,2026-131F,2026-06-19T22:00:01.999584,15.92201008,.00010601,97.2835,191.3189,79.1192,236.4939,0,U,69483,999,245,-.32661459E-2,-.1082714E-1,.34952542E-3
STARLINK-37873,2026-131G,2026-06-19T22:00:01.999584,15.92304729,.00010599,97.2836,191.3200,79.1332,239.2113,0,U,69484,999,245,-.32546573E-2,-.108467E-1,.3510659E-3
STARLINK-37892,2026-131H,2026-06-19T22:00:01.999584,15.92410340,.00011043,97.2835,191.3210,76.2533,244.1559,0,U,69485,999,245,-.32341341E-2,-.108373E-1,.35087723E-3
